IRIDIUM 57              
1 25273U 98019B   24230.21803642  .00001126  00000+0  38636-3 0  9991
2 25273  86.3920 272.5534 0002267  90.9056 269.2400 14.35337587381172
IRIDIUM 63              
1 25286U 98021B   24230.91515604  .00001682  00000+0  57362-3 0  9997
2 25286  86.4001 209.1713 0002381  93.3191 266.8278 14.35903546380311
IRIDIUM 69              
1 25319U 98026A   24231.07963615  .00001611  00000+0  50409-3 0  9993
2 25319  86.3969 223.2952 0001334  18.4755 341.6492 14.40158937379661
IRIDIUM 71              
1 25320U 98026B   24231.06646867  .00001786  00000+0  55595-3 0  9995
2 25320  86.3976 218.0509 0003383  50.4449 309.7048 14.40466554380192
IRIDIUM 73              
1 25344U 98032C   24230.83074120  .00002438  00000+0  61515-3 0  9993
2 25344  86.4480 175.5218 0002033  78.7906 281.3528 14.50748818386567
IRIDIUM 82              
1 25467U 98051A   24230.51392595  .00028904  00000+0  13669-2 0  9996
2 25467  86.3703 256.6158 0120585 356.0554   3.9720 15.12923994377750
